COSMOS 1933             
1 18958U 88020A   22083.84318602  .00001567  00000+0  11028-3 0  9999
2 18958  82.5299 222.1634 0012807 111.6349 248.6243 15.04317138832084
SL-3 R/B                
1 19046U 88032B   22083.93654854  .00001245  00000+0  94544-4 0  9991
2 19046  97.3941  86.6448 0037487 164.5150 195.7232 15.03380613833915
SL-16 R/B               
1 19120U 88039B   22083.87508678 -.00000107  00000+0 -28105-4 0  9994
2 19120  71.0135 244.6892 0020592  32.5872 327.6519 14.19239207753222
COSMOS 1953             
1 19210U 88050A   22083.62196030  .00001346  00000+0  88110-4 0  9991
2 19210  82.5151 143.2947 0015319  76.5971 283.6963 15.06849677818783
SL-8 R/B                
1 19257U 88053B   22083.91933045  .00000237  00000+0  87725-4 0  9991
2 19257  74.0467 254.0547 0019509  72.4117  36.4164 14.37569717768754
COSMOS 1975             
1 19573U 88093A   22083.86816402  .00001498  00000+0  10135-3 0  9997
2 19573  82.5166  98.7404 0015323 119.9177 240.3574 15.05736620800554
SL-14 R/B               
1 19574U 88093B   22084.18969399  .00000223  00000+0  24134-4 0  9998
2 19574  82.5317 316.1877 0022717 130.0148 351.1480 14.83446487807683
SL-16 R/B               
1 19650U 88102B   22083.89390252  .00000108  00000+0  79265-4 0  9994
2 19650  70.9999 312.6618 0012581  46.2627 313.9535 14.15820216722232
INTERCOSMOS 24          
1 20261U 89080A   22084.19190979  .00000511  00000+0  14555-3 0  9996
2 20261  82.6036 322.3335 1202524  37.6884 330.2574 12.56307899484663
SL-14 R/B               
1 20262U 89080C   22083.91306601  .00000085  00000+0  24681-4 0  9995
2 20262  82.5999  20.4524 1235504 245.3395 101.4256 12.49034765479565
DELTA 2 R/B(1)          
1 20303U 89085B   22083.84081082  .00015947  00000+0  43947-3 0  9999
2 20303  35.6384 265.0169 0083676 171.6468 188.5673 15.32775011767450
DELTA 1 R/B             
1 20323U 89089B   22083.87323654  .00000133  00000+0  43503-4 0  9992
2 20323  97.0921 139.1178 0071553   2.0152 358.1320 14.48475072686296
ARIANE 40 R/B           
1 20443U 90005H   22083.88973482  .00000114  00000+0  51844-4 0  9992
2 20443  98.4916 152.6552 0009885 212.6456 147.4121 14.38187862685146
DELTA 2 R/B(1)          
1 20453U 90008B   22084.34887809  .00006674  00000+0  35483-3 0  9992
2 20453  35.6262  41.8846 0272024 304.6979  52.8386 14.88150554707362
COSMOS 2058             
1 20465U 90010A   22083.88725516  .00001391  00000+0  11354-3 0  9994
2 20465  82.4923  12.0698 0015079 178.4850 181.6422 14.98602270724969
SL-14 R/B               
1 20466U 90010B   22084.33435728  .00000232  00000+0  26567-4 0  9995
2 20466  82.5064 182.2920 0020871  19.7347 340.4669 14.81495720735411
SL-14 R/B               
1 20511U 90018B   22084.51059366  .00000190  00000+0  21908-4 0  9991
2 20511  82.5218 131.4125 0018129 154.4887 322.7590 14.80145220729779
HST                     
1 20580U 90037B   22083.53339881  .00001892  00000+0  10215-3 0  9990
2 20580  28.4712  11.3316 0002592 197.9531 324.4615 15.10161846553369
SL-16 R/B               
1 20625U 90046B   22083.72541982 -.00000176  00000+0 -66661-4 0  9991
2 20625  70.9965  93.7734 0015111 333.1058  26.9280 14.14681303643874
COSMOS 2084             
1 20663U 90055A   22083.63318233  .00000634  00000+0  72753-4 0  9990
2 20663  62.7933 173.2885 0108831  40.9674 319.9531 14.92566998719630
SL-6 R/B(2)             
1 20666U 90055D   22084.17952968  .00001099  00000+0  10828-3 0  9992
2 20666  62.7830  86.2164 0125714  64.1362 297.2631 14.92839348721143
SL-8 R/B                
1 20775U 90078B   22083.91274487  .00015425  00000+0  73485-3 0  9998
2 20775  82.9255  53.1508 0557523 350.9544   8.1906 14.38312677598360
SL-8 R/B                
1 21088U 91006B   22083.85826970  .00000058  00000+0  42585-4 0  9995
2 21088  82.9454 165.3682 0023920 122.7663  15.4118 13.77189021565046
OKEAN-3                 
1 21397U 91039A   22083.81507409  .00001022  00000+0  94607-4 0  9997
2 21397  82.5184 283.0817 0017912 164.7645 195.4119 14.93427438648546
COSMOS 2151             
1 21422U 91042A   22083.92260968  .00000835  00000+0  78867-4 0  9999
2 21422  82.5030  28.2931 0012689 232.6748 127.3316 14.92493219647075
SL-14 R/B               
1 21423U 91042B   22084.20470490  .00000182  00000+0  21009-4 0  9996
2 21423  82.4928 133.3539 0016269 306.6054  53.3662 14.79893961660208
ERS-1                   
1 21574U 91050A   22084.49771246  .00000107  00000+0  50055-4 0  9996
2 21574  98.6890  52.3438 0033074 165.5064 194.7078 14.37870805607934
ARIANE 40 R/B           
1 21610U 91050F   22083.93322764  .00000127  00000+0  52845-4 0  9993
2 21610  98.3884 155.0631 0004406 114.9265  58.7367 14.41016464610650
INTERCOSMOS 25          
1 21819U 91086A   22083.97947708  .00000863  00000+0  17511-3 0  9995
2 21819  82.5725  99.3913 1513471 336.1277  17.6117 12.05559918322079
SL-8 R/B                
1 21876U 92008B   22083.96085146  .00000002  00000+0 -13587-4 0  9997
2 21876  82.9228 262.6145 0034212 210.1003 258.8058 13.75694912510629
SL-8 R/B                
1 21938U 92020B   22083.72318619  .00000018  00000+0  29762-5 0  9997
2 21938  82.9311 147.5158 0029425  16.1759 115.9975 13.75305928502367
COSMOS 2219             
1 22219U 92076A   22083.89832171  .00000068  00000+0  61071-4 0  9996
2 22219  71.0589 159.3557 0020222 250.0109 109.8836 14.13675249514027
SL-16 R/B               
1 22220U 92076B   22083.96315420 -.00000181  00000+0 -66613-4 0  9994
2 22220  71.0031 352.7270 0011577 147.7219 289.9547 14.16486523517085
COSMOS 2221             
1 22236U 92080A   22083.82616907  .00000867  00000+0  90981-4 0  9999
2 22236  82.5096 213.7064 0015999 343.7128  16.3573 14.88298282565240
SL-16 R/B               
1 22285U 92093B   22084.19138609 -.00000221  00000+0 -89468-4 0  9990
2 22285  71.0212 157.7883 0005143 323.8164  36.2610 14.15075660508964
COSMOS 2228             
1 22286U 92094A   22084.48875139  .00000842  00000+0  87475-4 0  9993
2 22286  82.5227 170.1073 0022483  95.1500 265.2285 14.88542911581609
SL-16 R/B               
1 22566U 93016B   22083.90265713  .00000287  00000+0  17295-3 0  9991
2 22566  71.0108  10.8740 0010343 351.7317   8.3633 14.14994972497630
COSMOS 2242             
1 22626U 93024A   22083.79211849  .00000929  00000+0  97313-4 0  9998
2 22626  82.5247 199.1526 0020238  97.6851 262.6666 14.88377303564814
SL-16 R/B               
1 22803U 93059B   22084.54127096 -.00000238  00000+0 -94340-4 0  9999
2 22803  70.9909 177.6605 0019561 254.1276 105.7691 14.16852355475074
ARIANE 40 R/B           
1 22830U 93061H   22083.87739058  .00000062  00000+0  40162-4 0  9990
2 22830  98.6732 146.8239 0010245 223.5434 136.4941 14.31522963487160
COSMOS 2278             
1 23087U 94023A   22083.92398307 -.00000206  00000+0 -83998-4 0  9994
2 23087  71.0539 318.4704 0006565  73.1442 287.0399 14.13849622440429
SL-16 R/B               
1 23088U 94023B   22083.82364434 -.00000283  00000+0 -12239-3 0  9992
2 23088  70.9996 226.5088 0005021 307.6557  52.4109 14.14700967441587
SL-16 R/B               
1 23343U 94074B   22084.18229747  .00000203  00000+0  35926-4 0  9998
2 23343  97.9045 138.8887 0005939 219.7460 207.0828 14.76969756473932
SL-16 R/B               
1 23405U 94077B   22084.50656868  .00000292  00000+0  17450-3 0  9993
2 23405  70.9826 152.0209 0003982 230.6693 129.4077 14.15251043412012
ERS-2                   
1 23560U 95021A   22083.59630596  .00004979  00000+0  20023-3 0  9999
2 23560  98.5134 337.3215 0004452 117.3754 242.7934 15.25479380440378
ARIANE 40+ R/B          
1 23561U 95021B   22083.89640847  .00000139  00000+0  60623-4 0  9998
2 23561  98.6338 140.8319 0007880 132.8713  40.5571 14.38102338411337
SL-16 R/B               
1 23705U 95058B   22083.94233902  .00000303  00000+0  18041-3 0  9993
2 23705  71.0245 334.6124 0012208 172.8373 187.2926 14.15165534363298
SL-16 R/B               
1 24298U 96051B   22084.46097203 -.00000021  00000+0  14991-4 0  9994
2 24298  70.8216 348.0606 0013819 123.8721 236.3716 14.12401095317831
ORBVIEW 2 (SEASTAR)     
1 24883U 97037A   22083.92316111  .00000169  00000+0  76973-4 0  9991
2 24883  98.6664 207.0812 0002420  26.5181 333.6126 14.33691821301193
SL-16 R/B               
1 25400U 98043G   22083.84744716  .00000032  00000+0  31997-4 0  9998
2 25400  98.6666  20.9232 0008844 253.9109 106.1097 14.25501304232966
SL-16 R/B               
1 25407U 98045B   22083.94642076  .00000073  00000+0  61247-4 0  9990
2 25407  71.0142 340.9757 0005386  61.1915 298.9748 14.15855950222449
ISS (ZARYA)             
1 25544U 98067A   22084.12316441  .00006730  00000+0  12782-3 0  9996
2 25544  51.6446  32.9367 0004076 310.4490 170.3824 15.49536326332148
CZ-4B R/B               
1 25732U 99025C   22083.96662177  .00000011  00000+0  27053-4 0  9995
2 25732  98.8661 125.5277 0037648 167.4241 256.9431 14.17716332183288
OKEAN-O                 
1 25860U 99039A   22083.83572418  .00000282  00000+0  47711-4 0  9999
2 25860  98.1506 122.9252 0001085  70.5349 289.5978 14.76858412220768
SL-16 R/B               
1 25861U 99039B   22084.30303098  .00000251  00000+0  41580-4 0  9993
2 25861  98.1880 109.8747 0014445 240.9939 118.9825 14.78746624223198
DELTA 2 R/B             
1 25876U 99041E   22083.95488867  .00000817  00000+0  17924-3 0  9992
2 25876  51.7628 281.5118 0531140  67.1457 298.4648 14.04885766159374
HELIOS 1B               
1 25977U 99064A   22084.11727943  .00000369  00000+0  52852-4 0  9991
2 25977  98.3243 274.9102 0002378  78.0387 282.1091 14.82688054202080
TERRA                   
1 25994U 99068A   22084.50633101  .00000217  00000+0  57946-4 0  9990
2 25994  98.1434 158.3280 0001358  97.3263  30.3624 14.57148992184397
SL-16 R/B               
1 26070U 00006B   22083.93998413  .00000294  00000+0  17471-3 0  9999
2 26070  71.0006 256.8181 0018198 227.0704 132.8893 14.15480242143958
